<?xml version="1.0" encoding="UTF-8"?>
<gpx version="1.1" creator="Map2GPX" xmlns="http://www.topografix.com/GPX/1/1">
  <!-- Waypoints -->
  <wpt lat="11.5564" lon="104.9282">
    <name>Tent spot</name>
    <desc>Phnom Penh riverside</desc>
    <sym>tent</sym>
  </wpt>
  <wpt lat="11.5689" lon="104.9210">
    <name>Fuel stop</name>
    <desc>Station near Russian Market</desc>
    <sym>fuel</sym>
  </wpt>
  <wpt lat="11.5500" lon="104.9260">
    <name>Camera point</name>
    <desc>Independence Monument view</desc>
    <sym>camera</sym>
  </wpt>

  <!-- Track segment -->
  <trk>
    <name>Sample Route</name>
    <trkseg>
      <trkpt lat="11.5564" lon="104.9282"></trkpt>
      <trkpt lat="11.5580" lon="104.9250"></trkpt>
      <trkpt lat="11.5600" lon="104.9220"></trkpt>
      <trkpt lat="11.5625" lon="104.9215"></trkpt>
      <trkpt lat="11.5650" lon="104.9212"></trkpt>
      <trkpt lat="11.5689" lon="104.9210"></trkpt>
      <trkpt lat="11.5500" lon="104.9260"></trkpt>
    </trkseg>
  </trk>
</gpx>